NORAD_CAT_ID,OBJECT_NAME,OBJECT_TYPE,EPOCH,MEAN_MOTION,ECCENTRICITY,INCLINATION,RA_OF_ASC_NODE,ARG_OF_PERICENTER,MEAN_ANOMALY,BSTAR,MEAN_MOTION_DOT,MEAN_MOTION_DDOT,TLE_LINE0,TLE_LINE1,TLE_LINE2,SEMIMAJOR_AXIS,PERIOD,APOGEE,PERIGEE,DECAYED
49456.0,STARLINK-3124,PAYLOAD,2023-06-04 21:40:43,15.08841688,0.0001269,53.218,67.7853,102.4482,257.6652,3.3678e-05,2.48e-06,0.0,0 STARLINK-3124,1 49456U 21104BA  23155.90327829  .00000248  00000-0  33678-4 0  9997,2 49456  53.2180  67.7853 0001269 102.4482 257.6652 15.08841688 86482,6917.875,95.437,540.618,538.862,0.0
49456.0,STARLINK-3124,PAYLOAD,2023-06-05 04:02:15,15.08862572,0.0001177,53.2159,66.5987,82.3965,277.7161,-0.00020154,-3.496e-05,0.0,0 STARLINK-3124,1 49456U 21104BA  23156.16823069 -.00003496  00000-0 -20154-3 0  9997,2 49456  53.2159  66.5987 0001177  82.3965 277.7161 15.08862572 87599,6917.811,95.436,540.491,538.862,0.0
49456.0,STARLINK-3124,PAYLOAD,2023-06-05 18:20:44,15.08836397,9.94e-05,53.2176,63.9225,88.4472,271.6634,3.4284e-05,2.58e-06,0.0,0 STARLINK-3124,1 49456U 21104BA  23156.76440217  .00000258  00000-0  34284-4 0  9994,2 49456  53.2176  63.9225 0000994  88.4472 271.6634 15.08836397 86616,6917.891,95.438,540.444,539.069,0.0
49456.0,STARLINK-3124,PAYLOAD,2023-06-06 00:42:16,15.08844795,0.0001085,53.218,62.7308,83.9884,276.1232,6.4809e-05,7.44e-06,0.0,0 STARLINK-3124,1 49456U 21104BA  23157.02935577  .00000744  00000-0  64809-4 0  9998,2 49456  53.2180  62.7308 0001085  83.9884 276.1232 15.08844795 87727,6917.866,95.437,540.481,538.98,0.0
49456.0,STARLINK-3124,PAYLOAD,2023-06-06 03:53:02,15.0884911,0.000106,53.2179,62.1381,90.5341,269.5772,0.00012937,1.772e-05,0.0,0 STARLINK-3124,1 49456U 21104BA  23157.16183136  .00001772  00000-0  12937-3 0  9995,2 49456  53.2179  62.1381 0001060  90.5341 269.5772 15.08849110 86679,6917.853,95.437,540.451,538.984,0.0
49456.0,STARLINK-3124,PAYLOAD,2023-06-06 18:11:31,15.08833728,0.0001002,53.218,59.4612,87.7081,272.4026,-1.0624e-06,-3.05e-06,0.0,0 STARLINK-3124,1 49456U 21104BA  23157.75800640 -.00000305  00000-0 -10624-5 0  9992,2 49456  53.2180  59.4612 0001002  87.7081 272.4026 15.08833728 87834,6917.9,95.438,540.458,539.071,0.0
49456.0,STARLINK-3124,PAYLOAD,2023-06-07 02:08:26,15.08842061,0.0001178,53.2188,57.9748,84.7127,275.3999,6.5901e-05,7.61e-06,0.0,0 STARLINK-3124,1 49456U 21104BA  23158.08920034  .00000761  00000-0  65901-4 0  9990,2 49456  53.2188  57.9748 0001178  84.7127 275.3999 15.08842061 87883,6917.874,95.437,540.554,538.924,0.0
49456.0,STARLINK-3124,PAYLOAD,2023-06-07 11:40:45,15.08864681,0.0001012,53.2181,56.1921,98.7291,261.3816,-0.00035631,-5.958e-05,0.0,0 STARLINK-3124,1 49456U 21104BA  23158.48663241 -.00005958  00000-0 -35631-3 0  9999,2 49456  53.2181  56.1921 0001012  98.7291 261.3816 15.08864681 86877,6917.805,95.436,540.37,538.97,0.0
49456.0,STARLINK-3124,PAYLOAD,2023-06-07 21:13:05,15.08835995,0.0001053,53.2179,54.4076,95.4511,264.6601,-2.3049e-05,-6.55e-06,0.0,0 STARLINK-3124,1 49456U 21104BA  23158.88408891 -.00000655  00000-0 -23049-4 0  9991,2 49456  53.2179  54.4076 0001053  95.4511 264.6601 15.08835995 86931,6917.893,95.438,540.486,539.029,0.0
49456.0,STARLINK-3124,PAYLOAD,2023-06-08 01:59:14,15.0884128,0.0001084,53.2177,53.5153,94.9109,265.2006,2.2518e-05,7.1e-07,0.0,0 STARLINK-3124,1 49456U 21104BA  23159.08280464  .00000071  00000-0  22518-4 0  9998,2 49456  53.2177  53.5153 0001084  94.9109 265.2006 15.08841280 88039,6917.876,95.437,540.491,538.992,0.0
49456.0,STARLINK-3124,PAYLOAD,2023-06-09 01:50:00,15.08848462,0.0001096,53.2175,49.0536,118.3171,241.7932,0.00015262,2.143e-05,0.0,0 STARLINK-3124,1 49456U 21104BA  23160.07639791  .00002143  00000-0  15262-3 0  9999,2 49456  53.2175  49.0536 0001096 118.3171 241.7932 15.08848462 88187,6917.855,95.437,540.478,538.961,0.0
49456.0,STARLINK-3124,PAYLOAD,2023-06-09 09:46:57,15.08839564,0.0001135,53.2177,47.5642,94.9827,265.1295,3.8035e-05,3.18e-06,0.0,0 STARLINK-3124,1 49456U 21104BA  23160.40760449  .00000318  00000-0  38035-4 0  9997,2 49456  53.2177  47.5642 0001135  94.9827 265.1295 15.08839564 88232,6917.882,95.438,540.532,538.962,0.0
49456.0,STARLINK-3124,PAYLOAD,2023-06-09 19:19:16,15.08835073,0.0001093,53.2179,45.7827,105.4098,254.7015,0.0001082,1.434e-05,0.0,0 STARLINK-3124,1 49456U 21104BA  23160.80504925  .00001434  00000-0  10820-3 0  9997,2 49456  53.2179  45.7827 0001093 105.4098 254.7015 15.08835073 87223,6917.895,95.438,540.517,539.004,0.0
49456.0,STARLINK-3124,PAYLOAD,2023-06-10 09:37:44,15.08844454,0.0001107,53.2179,43.1074,95.4353,264.6765,0.00010496,1.383e-05,0.0,0 STARLINK-3124,1 49456U 21104BA  23161.40120388  .00001383  00000-0  10496-3 0  9993,2 49456  53.2179  43.1074 0001107  95.4353 264.6765 15.08844454 87312,6917.867,95.437,540.498,538.966,0.0
49456.0,STARLINK-3124,PAYLOAD,2023-06-10 17:34:39,15.08844081,0.0001154,53.2182,41.6204,92.1939,267.9185,2.2208e-05,6.6e-07,0.0,0 STARLINK-3124,1 49456U 21104BA  23161.73240698  .00000066  00000-0  22208-4 0  9998,2 49456  53.2182  41.6204 0001154  92.1939 267.9185 15.08844081 88432,6917.868,95.437,540.531,538.935,0.0
49456.0,STARLINK-3124,PAYLOAD,2023-06-10 22:20:48,15.0885097,0.0001188,53.218,40.727,105.9896,254.1227,7.8197e-05,9.57e-06,0.0,0 STARLINK-3124,1 49456U 21104BA  23161.93112001  .00000957  00000-0  78197-4 0  9993,2 49456  53.2180  40.7270 0001188 105.9896 254.1227 15.08850970 87398,6917.847,95.437,540.534,538.89,0.0
49456.0,STARLINK-3124,PAYLOAD,2023-06-11 09:28:30,15.08846435,0.0001064,53.2193,38.6455,96.4619,263.6494,3.22e-05,2.25e-06,0.0,0 STARLINK-3124,1 49456U 21104BA  23162.39480295  .00000225  00000-0  32200-4 0  9990,2 49456  53.2193  38.6455 0001064  96.4619 263.6494 15.08846435 88532,6917.861,95.437,540.462,538.99,0.0
49456.0,STARLINK-3124,PAYLOAD,2023-06-11 15:50:03,15.08837954,0.0001089,53.2183,37.4576,96.8398,263.2718,9.147e-05,1.168e-05,0.0,0 STARLINK-3124,1 49456U 21104BA  23162.65976783  .00001168  00000-0  91470-4 0  9992,2 49456  53.2183  37.4576 0001089  96.8398 263.2718 15.08837954 88572,6917.887,95.438,540.505,538.998,0.0
49456.0,STARLINK-3124,PAYLOAD,2023-06-11 22:11:36,15.08837638,0.0001188,53.2179,36.2682,93.7879,266.3249,6.7331e-05,7.84e-06,0.0,0 STARLINK-3124,1 49456U 21104BA  23162.92472887  .00000784  00000-0  67331-4 0  9990,2 49456  53.2179  36.2682 0001188  93.7879 266.3249 15.08837638 87540,6917.888,95.438,540.574,538.931,0.0
49456.0,STARLINK-3124,PAYLOAD,2023-06-12 01:22:22,15.08842263,0.0001157,53.2181,35.673,96.3177,263.7947,4.3791e-05,4.09e-06,0.0,0 STARLINK-3124,1 49456U 21104BA  23163.05720589  .00000409  00000-0  43791-4 0  9998,2 49456  53.2181  35.6730 0001157  96.3177 263.7947 15.08842263 87564,6917.873,95.437,540.539,538.938,0.0
49456.0,STARLINK-3124,PAYLOAD,2023-06-12 22:02:23,15.08843863,0.0001123,53.2184,31.8064,97.3778,262.7342,9.0884e-05,1.159e-05,0.0,0 STARLINK-3124,1 49456U 21104BA  23163.91832412  .00001159  00000-0  90884-4 0  9990,2 49456  53.2184  31.8064 0001123  97.3778 262.7342 15.08843863 87695,6917.869,95.437,540.51,538.957,0.0
49456.0,STARLINK-3124,PAYLOAD,2023-06-13 01:13:09,15.08846156,0.0001064,53.2183,31.2125,95.8037,264.3077,7.2315e-05,8.63e-06,0.0,0 STARLINK-3124,1 49456U 21104BA  23164.05080286  .00000863  00000-0  72315-4 0  9990,2 49456  53.2183  31.2125 0001064  95.8037 264.3077 15.08846156 88783,6917.862,95.437,540.463,538.991,0.0
49456.0,STARLINK-3124,PAYLOAD,2023-06-13 15:31:38,15.08834835,0.0001143,53.2179,28.5359,90.1539,269.9585,6.0247e-05,6.71e-06,0.0,0 STARLINK-3124,1 49456U 21104BA  23164.64697090  .00000671  00000-0  60247-4 0  9990,2 49456  53.2179  28.5359 0001143  90.1539 269.9585 15.08834835 88875,6917.896,95.438,540.552,538.97,0.0
49456.0,STARLINK-3124,PAYLOAD,2023-06-13 21:53:10,15.08838298,0.0001005,53.2178,27.3474,88.3141,271.7966,9.2108e-05,1.178e-05,0.0,0 STARLINK-3124,1 49456U 21104BA  23164.91192852  .00001178  00000-0  92108-4 0  9990,2 49456  53.2178  27.3474 0001005  88.3141 271.7966 15.08838298 87841,6917.886,95.438,540.446,539.055,0.0
49456.0,STARLINK-3124,PAYLOAD,2023-06-14 16:57:48,15.08836223,0.0001004,53.2176,23.7796,93.9209,266.1898,4.7553e-05,4.69e-06,0.0,0 STARLINK-3124,1 49456U 21104BA  23165.70681336  .00000469  00000-0  47553-4 0  9994,2 49456  53.2176  23.7796 0001004  93.9209 266.1898 15.08836223 89033,6917.892,95.438,540.451,539.062,0.0
49456.0,STARLINK-3124,PAYLOAD,2023-06-14 21:43:57,15.08841186,0.0001002,53.2172,22.8879,96.1973,263.9133,8.6605e-05,1.091e-05,0.0,0 STARLINK-3124,1 49456U 21104BA  23165.90552944  .00001091  00000-0  86605-4 0  9991,2 49456  53.2172  22.8879 0001002  96.1973 263.9133 15.08841186 87996,6917.877,95.437,540.435,539.049,0.0
49456.0,STARLINK-3124,PAYLOAD,2023-06-15 10:27:03,15.0883627,9.55e-05,53.219,20.5087,74.2674,285.8423,6.5477e-05,7.54e-06,0.0,0 STARLINK-3124,1 49456U 21104BA  23166.43545465  .00000754  00000-0  65477-4 0  9999,2 49456  53.2190  20.5087 0000955  74.2674 285.8423 15.08836270 88076,6917.892,95.438,540.417,539.096,0.0
49456.0,STARLINK-3124,PAYLOAD,2023-06-15 18:23:58,15.08836287,9.44e-05,53.218,19.0224,88.4072,271.7028,8.154e-05,1.01e-05,0.0,0 STARLINK-3124,1 49456U 21104BA  23166.76665496  .00001010  00000-0  81540-4 0  9997,2 49456  53.2180  19.0224 0000944  88.4072 271.7028 15.08836287 89195,6917.892,95.438,540.41,539.104,0.0
49456.0,STARLINK-3124,PAYLOAD,2023-06-16 08:42:26,15.08843273,0.0001001,53.2174,16.3457,84.4568,275.6538,0.0001326,1.823e-05,0.0,0 STARLINK-3124,1 49456U 21104BA  23167.36280987  .00001823  00000-0  13260-3 0  9997,2 49456  53.2174  16.3457 0001001  84.4568 275.6538 15.08843273 89289,6917.87,95.437,540.428,539.043,0.0
49456.0,STARLINK-3124,PAYLOAD,2023-06-16 18:14:44,15.08853383,9.55e-05,53.2175,14.5614,83.5254,276.5847,0.00015292,2.148e-05,0.0,0 STARLINK-3124,1 49456U 21104BA  23167.76024184  .00002148  00000-0  15292-3 0  9994,2 49456  53.2175  14.5614 0000955  83.5254 276.5847 15.08853383 88278,6917.839,95.437,540.365,539.044,0.0
